start=new Date('2023-03-07T00:00:00.000Z').valueOf();
sats=[{"MEAN_ELEMENT_THEORY":"SGP4","MEAN_MOTION":"15.06408667","EPOCH":"2023-03-06T20:27:21.831264","TLE_LINE1":"1 48578U 21041AB  23065.85233601  .00029607  00000-0  19977-2 0  9993","DECAY_DATE":null,"SITE":"AFETR","ARG_OF_PERICENTER":"89.5181","OBJECT_TYPE":"PAYLOAD","INCLINATION":"53.0549","MEAN_MOTION_DOT":"0.00029607","EPHEMERIS_TYPE":"0","REF_FRAME":"TEME","ECCENTRICITY":"0.00017160","PERIAPSIS":"545.999","MEAN_MOTION_DDOT":"0.0000000000000","CLASSIFICATION_TYPE":"U","LAUNCH_DATE":"2021-05-15","OBJECT_NAME":"STARLINK-2232","ELEMENT_SET_NO":"999","COUNTRY_CODE":"US","REV_AT_EPOCH":"9957","RA_OF_ASC_NODE":"25.0066","OBJECT_ID":"2021-041AB","BSTAR":"0.00199770000000","RCS_SIZE":"LARGE","TIME_SYSTEM":"UTC","PERIOD":"95.592","TLE_LINE2":"2 48578  53.0549  25.0066 0001716  89.5181 270.6005 15.06408667 99579","MEAN_ANOMALY":"270.6005","GP_ID":"227625681","SEMIMAJOR_AXIS":"6925.322","FILE":"3853141","APOAPSIS":"548.375","CENTER_NAME":"EARTH","NORAD_CAT_ID":"48578"},{"EPHEMERIS_TYPE":"0","INCLINATION":"53.0549","MEAN_MOTION_DOT":"-0.00000818","OBJECT_TYPE":"PAYLOAD","REF_FRAME":"TEME","ECCENTRICITY":"0.00013550","TLE_LINE1":"1 48579U 21041AC  23065.87807619 -.00000818  00000-0 -36024-4 0  9991","MEAN_ELEMENT_THEORY":"SGP4","MEAN_MOTION":"15.06385714","EPOCH":"2023-03-06T21:04:25.782816","ARG_OF_PERICENTER":"93.0620","SITE":"AFETR","DECAY_DATE":null,"LAUNCH_DATE":"2021-05-15","CLASSIFICATION_TYPE":"U","MEAN_MOTION_DDOT":"0.0000000000000","PERIAPSIS":"546.319","COUNTRY_CODE":"US","REV_AT_EPOCH":"9958","RA_OF_ASC_NODE":"24.3794","OBJECT_NAME":"STARLINK-2233","ELEMENT_SET_NO":"999","GP_ID":"227625932","MEAN_ANOMALY":"267.0524","NORAD_CAT_ID":"48579","APOAPSIS":"548.196","CENTER_NAME":"EARTH","FILE":"3853141","SEMIMAJOR_AXIS":"6925.392","BSTAR":"-0.00003602400000","OBJECT_ID":"2021-041AC","TLE_LINE2":"2 48579  53.0549  24.3794 0001355  93.0620 267.0524 15.06385714 99581","PERIOD":"95.593","TIME_SYSTEM":"UTC","RCS_SIZE":"LARGE"},{"ECCENTRICITY":"0.00026940","REF_FRAME":"TEME","EPHEMERIS_TYPE":"0","OBJECT_TYPE":"PAYLOAD","MEAN_MOTION_DOT":"0.00031507","INCLINATION":"53.0567","ARG_OF_PERICENTER":"89.6785","DECAY_DATE":null,"SITE":"AFETR","TLE_LINE1":"1 48580U 21041AD  23065.84442271  .00031507  00000-0  21248-2 0  9996","MEAN_ELEMENT_THEORY":"SGP4","MEAN_MOTION":"15.06396116","EPOCH":"2023-03-06T20:15:58.122144","LAUNCH_DATE":"2021-05-15","CLASSIFICATION_TYPE":"U","MEAN_MOTION_DDOT":"0.0000000000000","PERIAPSIS":"545.360","RA_OF_ASC_NODE":"359.5233","COUNTRY_CODE":"US","REV_AT_EPOCH":"9993","ELEMENT_SET_NO":"999","OBJECT_NAME":"STARLINK-2234","CENTER_NAME":"EARTH","APOAPSIS":"549.091","NORAD_CAT_ID":"48580","SEMIMAJOR_AXIS":"6925.360","FILE":"3853141","GP_ID":"227626682","MEAN_ANOMALY":"270.4513","PERIOD":"95.592","TLE_LINE2":"2 48580  53.0567 359.5233 0002694  89.6785 270.4513 15.06396116 99937","RCS_SIZE":"LARGE","TIME_SYSTEM":"UTC","BSTAR":"0.00212480000000","OBJECT_ID":"2021-041AD"},{"REV_AT_EPOCH":"10007","COUNTRY_CODE":"US","RA_OF_ASC_NODE":"349.7099","OBJECT_NAME":"STARLINK-2235","ELEMENT_SET_NO":"999","MEAN_ANOMALY":"298.3638","GP_ID":"227624932","SEMIMAJOR_AXIS":"6925.370","FILE":"3853141","CENTER_NAME":"EARTH","APOAPSIS":"547.880","NORAD_CAT_ID":"48581","OBJECT_ID":"2021-041AE","BSTAR":"-0.00010061000000","RCS_SIZE":"LARGE","TIME_SYSTEM":"UTC","PERIOD":"95.593","TLE_LINE2":"2 48581  53.0580 349.7099 0000931  61.7445 298.3638 15.06392968100076","OBJECT_TYPE":"PAYLOAD","INCLINATION":"53.0580","MEAN_MOTION_DOT":"-0.00001779","EPHEMERIS_TYPE":"0","ECCENTRICITY":"0.00009310","REF_FRAME":"TEME","EPOCH":"2023-03-06T19:20:15.771840","MEAN_MOTION":"15.06392968","MEAN_ELEMENT_THEORY":"SGP4","TLE_LINE1":"1 48581U 21041AE  23065.80573810 -.00001779  00000-0 -10061-3 0  9999","DECAY_DATE":null,"SITE":"AFETR","ARG_OF_PERICENTER":"61.7445","MEAN_MOTION_DDOT":"0.0000000000000","LAUNCH_DATE":"2021-05-15","CLASSIFICATION_TYPE":"U","PERIAPSIS":"546.590"},{"OBJECT_ID":"2021-041AF","BSTAR":"0.00028044000000","RCS_SIZE":"LARGE","TIME_SYSTEM":"UTC","PERIOD":"95.592","TLE_LINE2":"2 48582  53.0550 349.9476 0001302  89.9602 270.1536 15.06399587100063","MEAN_ANOMALY":"270.1536","GP_ID":"227625182","SEMIMAJOR_AXIS":"6925.350","FILE":"3853141","APOAPSIS":"548.117","CENTER_NAME":"EARTH","NORAD_CAT_ID":"48582","OBJECT_NAME":"STARLINK-2236","ELEMENT_SET_NO":"999","COUNTRY_CODE":"US","REV_AT_EPOCH":"10006","RA_OF_ASC_NODE":"349.9476","PERIAPSIS":"546.313","MEAN_MOTION_DDOT":"0.0000000000000","CLASSIFICATION_TYPE":"U","LAUNCH_DATE":"2021-05-15","EPOCH":"2023-03-06T18:53:45.734496","MEAN_MOTION":"15.06399587","MEAN_ELEMENT_THEORY":"SGP4","TLE_LINE1":"1 48582U 21041AF  23065.78733489  .00003898  00000-0  28044-3 0  9999","SITE":"AFETR","DECAY_DATE":null,"ARG_OF_PERICENTER":"89.9602","OBJECT_TYPE":"PAYLOAD","MEAN_MOTION_DOT":"0.00003898","INCLINATION":"53.0550","EPHEMERIS_TYPE":"0","ECCENTRICITY":"0.00013020","REF_FRAME":"TEME"},{"NORAD_CAT_ID":"48583","CENTER_NAME":"EARTH","APOAPSIS":"547.900","FILE":"3853141","SEMIMAJOR_AXIS":"6925.320","GP_ID":"227626432","MEAN_ANOMALY":"267.9530","TLE_LINE2":"2 48583  53.0543  34.1668 0001032  92.1578 267.9530 15.06409281 99451","PERIOD":"95.592","TIME_SYSTEM":"UTC","RCS_SIZE":"LARGE","BSTAR":"0.00090437000000","OBJECT_ID":"2021-041AG","RA_OF_ASC_NODE":"34.1668","REV_AT_EPOCH":"9945","COUNTRY_CODE":"US","ELEMENT_SET_NO":"999","OBJECT_NAME":"STARLINK-2237","LAUNCH_DATE":"2021-05-15","CLASSIFICATION_TYPE":"U","MEAN_MOTION_DDOT":"0.0000000000000","PERIAPSIS":"546.470","ECCENTRICITY":"0.00010320","REF_FRAME":"TEME","EPHEMERIS_TYPE":"0","INCLINATION":"53.0543","MEAN_MOTION_DOT":"0.00013218","OBJECT_TYPE":"PAYLOAD","ARG_OF_PERICENTER":"92.1578","DECAY_DATE":null,"SITE":"AFETR","TLE_LINE1":"1 48583U 21041AG  23065.92507034  .00013218  00000-0  90437-3 0  9993","MEAN_MOTION":"15.06409281","EPOCH":"2023-03-06T22:12:06.077376","MEAN_ELEMENT_THEORY":"SGP4"},{"SITE":"AFETR","DECAY_DATE":null,"ARG_OF_PERICENTER":"101.5940","MEAN_ELEMENT_THEORY":"SGP4","MEAN_MOTION":"15.06388300","EPOCH":"2023-03-06T21:34:57.091296","TLE_LINE1":"1 48584U 21041AH  23065.89927189  .00031163  00000-0  21024-2 0  9991","ECCENTRICITY":"0.00015760","REF_FRAME":"TEME","OBJECT_TYPE":"PAYLOAD","MEAN_MOTION_DOT":"0.00031163","INCLINATION":"53.0546","EPHEMERIS_TYPE":"0","PERIAPSIS":"546.158","MEAN_MOTION_DDOT":"0.0000000000000","CLASSIFICATION_TYPE":"U","LAUNCH_DATE":"2021-05-15","ELEMENT_SET_NO":"999","OBJECT_NAME":"STARLINK-2238","RA_OF_ASC_NODE":"34.2816","REV_AT_EPOCH":"9944","COUNTRY_CODE":"US","RCS_SIZE":"LARGE","TIME_SYSTEM":"UTC","PERIOD":"95.593","TLE_LINE2":"2 48584  53.0546  34.2816 0001576 101.5940 258.5226 15.06388300 99447","OBJECT_ID":"2021-041AH","BSTAR":"0.00210240000000","SEMIMAJOR_AXIS":"6925.384","FILE":"3853141","APOAPSIS":"548.341","CENTER_NAME":"EARTH","NORAD_CAT_ID":"48584","MEAN_ANOMALY":"258.5226","GP_ID":"227626183"},{"MEAN_MOTION_DDOT":"0.0000000000000","CLASSIFICATION_TYPE":"U","LAUNCH_DATE":"2021-05-15","PERIAPSIS":"546.090","OBJECT_TYPE":"PAYLOAD","INCLINATION":"53.0530","MEAN_MOTION_DOT":"0.00033403","EPHEMERIS_TYPE":"0","REF_FRAME":"TEME","ECCENTRICITY":"0.00015470","EPOCH":"2023-03-06T04:19:56.107200","MEAN_MOTION":"15.06417009","MEAN_ELEMENT_THEORY":"SGP4","TLE_LINE1":"1 48585U 21041AJ  23065.18051050  .00033403  00000-0  22497-2 0  9993","SITE":"AFETR","DECAY_DATE":null,"ARG_OF_PERICENTER":"111.5123","MEAN_ANOMALY":"248.6031","GP_ID":"227625432","SEMIMAJOR_AXIS":"6925.296","FILE":"3853141","CENTER_NAME":"EARTH","APOAPSIS":"548.233","NORAD_CAT_ID":"48585","OBJECT_ID":"2021-041AJ","BSTAR":"0.00224970000000","RCS_SIZE":"LARGE","TIME_SYSTEM":"UTC","PERIOD":"95.591","TLE_LINE2":"2 48585  53.0530  37.5080 0001547 111.5123 248.6031 15.06417009 99333","COUNTRY_CODE":"US","REV_AT_EPOCH":"9933","RA_OF_ASC_NODE":"37.5080","OBJECT_NAME":"STARLINK-2240","ELEMENT_SET_NO":"999"},{"LAUNCH_DATE":"2021-05-15","CLASSIFICATION_TYPE":"U","MEAN_MOTION_DDOT":"0.0000000000000","PERIAPSIS":"546.286","ECCENTRICITY":"0.00011720","REF_FRAME":"TEME","EPHEMERIS_TYPE":"0","OBJECT_TYPE":"PAYLOAD","MEAN_MOTION_DOT":"0.00031217","INCLINATION":"53.0552","ARG_OF_PERICENTER":"108.4085","SITE":"AFETR","DECAY_DATE":null,"TLE_LINE1":"1 48586U 21041AK  23065.43851782  .00031217  00000-0  21032-2 0  9997","MEAN_ELEMENT_THEORY":"SGP4","MEAN_MOTION":"15.06437689","EPOCH":"2023-03-06T10:31:27.939648","APOAPSIS":"547.910","CENTER_NAME":"EARTH","NORAD_CAT_ID":"48586","SEMIMAJOR_AXIS":"6925.233","FILE":"3853141","GP_ID":"227625682","MEAN_ANOMALY":"251.7032","PERIOD":"95.590","TLE_LINE2":"2 48586  53.0552  36.3497 0001172 108.4085 251.7032 15.06437689 99379","RCS_SIZE":"LARGE","TIME_SYSTEM":"UTC","BSTAR":"0.00210320000000","OBJECT_ID":"2021-041AK","RA_OF_ASC_NODE":"36.3497","COUNTRY_CODE":"US","REV_AT_EPOCH":"9937","ELEMENT_SET_NO":"999","OBJECT_NAME":"STARLINK-2241"},{"APOAPSIS":"548.188","CENTER_NAME":"EARTH","NORAD_CAT_ID":"48587","SEMIMAJOR_AXIS":"6925.355","FILE":"3853141","GP_ID":"227625933","MEAN_ANOMALY":"282.8075","PERIOD":"95.592","TLE_LINE2":"2 48587  53.0555  34.2434 0001398  77.3070 282.8075 15.06397999 99448","RCS_SIZE":"LARGE","TIME_SYSTEM":"UTC","BSTAR":"0.00032100000000","OBJECT_ID":"2021-041AL","RA_OF_ASC_NODE":"34.2434","REV_AT_EPOCH":"9944","COUNTRY_CODE":"US","ELEMENT_SET_NO":"999","OBJECT_NAME":"STARLINK-2242","LAUNCH_DATE":"2021-05-15","CLASSIFICATION_TYPE":"U","MEAN_MOTION_DDOT":"0.0000000000000","PERIAPSIS":"546.252","ECCENTRICITY":"0.00013980","REF_FRAME":"TEME","EPHEMERIS_TYPE":"0","OBJECT_TYPE":"PAYLOAD","MEAN_MOTION_DOT":"0.00004503","INCLINATION":"53.0555","ARG_OF_PERICENTER":"77.3070","SITE":"AFETR","DECAY_DATE":null,"TLE_LINE1":"1 48587U 21041AL  23065.90664462  .00004503  00000-0  32100-3 0  9994","EPOCH":"2023-03-06T21:45:34.095168","MEAN_MOTION":"15.06397999","MEAN_ELEMENT_THEORY":"SGP4"}];
